start=new Date('2023-06-03T00:00:00.000Z').valueOf();
sats=[{"LAUNCH_DATE":"2021-09-14","INCLINATION":"69.9994","PERIOD":"96.107","EPOCH":"2023-06-02T18:42:53.548416","GP_ID":"233070721","FILE":"3923570","ECCENTRICITY":"0.00033530","TLE_LINE1":"1 49177U 21082AZ  23153.77978644  .00000050  00000-0  12001-4 0  9990","PERIAPSIS":"569.731","CLASSIFICATION_TYPE":"U","BSTAR":"0.00001200100000","MEAN_MOTION":"14.98328894","TIME_SYSTEM":"UTC","MEAN_MOTION_DOT":"0.00000050","OBJECT_NAME":"STARLINK-3103","REF_FRAME":"TEME","EPHEMERIS_TYPE":"0","RCS_SIZE":"LARGE","REV_AT_EPOCH":"9673","SEMIMAJOR_AXIS":"6950.196","DECAY_DATE":null,"CENTER_NAME":"EARTH","TLE_LINE2":"2 49177  69.9994 283.3231 0003353 268.1127  91.9648 14.98328894 96737","APOAPSIS":"574.392","ARG_OF_PERICENTER":"268.1127","MEAN_MOTION_DDOT":"0.0000000000000","MEAN_ANOMALY":"91.9648","ELEMENT_SET_NO":"999","OBJECT_TYPE":"PAYLOAD","COUNTRY_CODE":"US","RA_OF_ASC_NODE":"283.3231","NORAD_CAT_ID":"49177","MEAN_ELEMENT_THEORY":"SGP4","OBJECT_ID":"2021-082AZ","SITE":"AFWTR"},{"MEAN_ELEMENT_THEORY":"SGP4","SITE":"AFWTR","OBJECT_ID":"2021-082BA","COUNTRY_CODE":"US","NORAD_CAT_ID":"49178","RA_OF_ASC_NODE":"323.4113","OBJECT_TYPE":"PAYLOAD","ELEMENT_SET_NO":"999","MEAN_MOTION_DDOT":"0.0000000000000","MEAN_ANOMALY":"89.4567","ARG_OF_PERICENTER":"270.6226","APOAPSIS":"574.277","TLE_LINE2":"2 49178  69.9991 323.4113 0003192 270.6226  89.4567 14.98329897 95701","REV_AT_EPOCH":"9570","CENTER_NAME":"EARTH","DECAY_DATE":null,"SEMIMAJOR_AXIS":"6950.193","RCS_SIZE":"LARGE","TIME_SYSTEM":"UTC","EPHEMERIS_TYPE":"0","REF_FRAME":"TEME","MEAN_MOTION_DOT":"0.00000356","OBJECT_NAME":"STARLINK-3086","MEAN_MOTION":"14.98329897","CLASSIFICATION_TYPE":"U","BSTAR":"0.00003765700000","PERIAPSIS":"569.840","GP_ID":"233070969","FILE":"3923570","TLE_LINE1":"1 49178U 21082BA  23153.73852353  .00000356  00000-0  37657-4 0  9998","ECCENTRICITY":"0.00031920","EPOCH":"2023-06-02T17:43:28.432992","PERIOD":"96.107","LAUNCH_DATE":"2021-09-14","INCLINATION":"69.9991"},{"EPHEMERIS_TYPE":"0","REF_FRAME":"TEME","OBJECT_NAME":"STARLINK-3043","MEAN_MOTION_DOT":"0.00000050","TIME_SYSTEM":"UTC","MEAN_MOTION":"14.98328842","BSTAR":"0.00001198800000","CLASSIFICATION_TYPE":"U","PERIAPSIS":"569.746","TLE_LINE1":"1 49179U 21082BB  23153.76726841  .00000050  00000-0  11988-4 0  9994","ECCENTRICITY":"0.00033310","GP_ID":"233069720","FILE":"3923570","EPOCH":"2023-06-02T18:24:51.990624","PERIOD":"96.107","INCLINATION":"69.9994","LAUNCH_DATE":"2021-09-14","SITE":"AFWTR","OBJECT_ID":"2021-082BB","MEAN_ELEMENT_THEORY":"SGP4","NORAD_CAT_ID":"49179","RA_OF_ASC_NODE":"283.3376","COUNTRY_CODE":"US","OBJECT_TYPE":"PAYLOAD","ELEMENT_SET_NO":"999","MEAN_ANOMALY":"89.9518","MEAN_MOTION_DDOT":"0.0000000000000","ARG_OF_PERICENTER":"270.1259","APOAPSIS":"574.377","TLE_LINE2":"2 49179  69.9994 283.3376 0003331 270.1259  89.9518 14.98328842 95537","DECAY_DATE":null,"CENTER_NAME":"EARTH","SEMIMAJOR_AXIS":"6950.196","REV_AT_EPOCH":"9553","RCS_SIZE":"LARGE"},{"OBJECT_TYPE":"PAYLOAD","ELEMENT_SET_NO":"999","MEAN_MOTION_DDOT":"0.0000000000000","MEAN_ANOMALY":"91.5752","MEAN_ELEMENT_THEORY":"SGP4","SITE":"AFWTR","OBJECT_ID":"2021-082BC","COUNTRY_CODE":"US","NORAD_CAT_ID":"49180","RA_OF_ASC_NODE":"303.3872","REV_AT_EPOCH":"9621","DECAY_DATE":null,"CENTER_NAME":"EARTH","SEMIMAJOR_AXIS":"6950.199","RCS_SIZE":"LARGE","ARG_OF_PERICENTER":"268.5039","APOAPSIS":"574.295","TLE_LINE2":"2 49180  69.9990 303.3872 0003210 268.5039  91.5752 14.98328098 96210","CLASSIFICATION_TYPE":"U","BSTAR":"-0.00001943300000","PERIAPSIS":"569.833","TIME_SYSTEM":"UTC","EPHEMERIS_TYPE":"0","OBJECT_NAME":"STARLINK-3050","REF_FRAME":"TEME","MEAN_MOTION_DOT":"-0.00000325","MEAN_MOTION":"14.98328098","EPOCH":"2023-06-02T18:01:10.095456","PERIOD":"96.107","LAUNCH_DATE":"2021-09-14","INCLINATION":"69.9990","FILE":"3923570","GP_ID":"233069970","TLE_LINE1":"1 49180U 21082BC  23153.75081129 -.00000325  00000-0 -19433-4 0  9998","ECCENTRICITY":"0.00032100"},{"TLE_LINE1":"1 49181U 21082BD  23153.78859340 -.00000786  00000-0 -58088-4 0  9990","ECCENTRICITY":"0.00031380","GP_ID":"233071222","FILE":"3923570","INCLINATION":"69.9986","LAUNCH_DATE":"2021-09-14","EPOCH":"2023-06-02T18:55:34.469760","PERIOD":"96.107","MEAN_MOTION":"14.98329962","EPHEMERIS_TYPE":"0","MEAN_MOTION_DOT":"-0.00000786","OBJECT_NAME":"STARLINK-3059","REF_FRAME":"TEME","TIME_SYSTEM":"UTC","PERIAPSIS":"569.877","BSTAR":"-0.00005808800000","CLASSIFICATION_TYPE":"U","APOAPSIS":"574.239","TLE_LINE2":"2 49181  69.9986 323.2988 0003138 269.3214  90.7586 14.98329962 95742","ARG_OF_PERICENTER":"269.3214","RCS_SIZE":"LARGE","CENTER_NAME":"EARTH","DECAY_DATE":null,"SEMIMAJOR_AXIS":"6950.193","REV_AT_EPOCH":"9574","NORAD_CAT_ID":"49181","RA_OF_ASC_NODE":"323.2988","COUNTRY_CODE":"US","SITE":"AFWTR","OBJECT_ID":"2021-082BD","MEAN_ELEMENT_THEORY":"SGP4","MEAN_ANOMALY":"90.7586","MEAN_MOTION_DDOT":"0.0000000000000","OBJECT_TYPE":"PAYLOAD","ELEMENT_SET_NO":"999"},{"EPOCH":"2023-06-02T02:14:43.015488","PERIOD":"95.437","INCLINATION":"53.2162","LAUNCH_DATE":"2021-11-13","TLE_LINE1":"1 49408U 21104A   23153.09355342 -.00000669  00000-0 -23949-4 0  9992","ECCENTRICITY":"0.00012280","GP_ID":"233038655","FILE":"3923342","BSTAR":"-0.00002394900000","CLASSIFICATION_TYPE":"U","PERIAPSIS":"538.882","EPHEMERIS_TYPE":"0","MEAN_MOTION_DOT":"-0.00000669","REF_FRAME":"TEME","OBJECT_NAME":"STARLINK-3151","TIME_SYSTEM":"UTC","MEAN_MOTION":"15.08844547","DECAY_DATE":null,"CENTER_NAME":"EARTH","SEMIMAJOR_AXIS":"6917.866","REV_AT_EPOCH":"8591","RCS_SIZE":"LARGE","ARG_OF_PERICENTER":"94.9734","APOAPSIS":"540.581","TLE_LINE2":"2 49408  53.2162  90.3620 0001228  94.9734 265.1398 15.08844547 85918","OBJECT_TYPE":"PAYLOAD","ELEMENT_SET_NO":"999","MEAN_ANOMALY":"265.1398","MEAN_MOTION_DDOT":"0.0000000000000","SITE":"AFETR","OBJECT_ID":"2021-104A","MEAN_ELEMENT_THEORY":"SGP4","NORAD_CAT_ID":"49408","RA_OF_ASC_NODE":"90.3620","COUNTRY_CODE":"US"},{"ELEMENT_SET_NO":"999","OBJECT_TYPE":"PAYLOAD","MEAN_MOTION_DDOT":"0.0000000000000","MEAN_ANOMALY":"277.7778","MEAN_ELEMENT_THEORY":"SGP4","OBJECT_ID":"2021-104B","SITE":"AFETR","COUNTRY_CODE":"US","RA_OF_ASC_NODE":"89.9834","NORAD_CAT_ID":"49409","REV_AT_EPOCH":"8593","SEMIMAJOR_AXIS":"6917.870","CENTER_NAME":"EARTH","DECAY_DATE":null,"RCS_SIZE":"LARGE","ARG_OF_PERICENTER":"82.3353","TLE_LINE2":"2 49409  53.2180  89.9834 0001223  82.3353 277.7778 15.08843319 85932","APOAPSIS":"540.581","CLASSIFICATION_TYPE":"U","BSTAR":"-0.00006201200000","PERIAPSIS":"538.889","TIME_SYSTEM":"UTC","MEAN_MOTION_DOT":"-0.00001275","OBJECT_NAME":"STARLINK-3075","REF_FRAME":"TEME","EPHEMERIS_TYPE":"0","MEAN_MOTION":"15.08843319","PERIOD":"95.437","EPOCH":"2023-06-02T04:11:17.659680","LAUNCH_DATE":"2021-11-13","INCLINATION":"53.2180","GP_ID":"233037904","FILE":"3923342","ECCENTRICITY":"0.00012230","TLE_LINE1":"1 49409U 21104B   23153.17450995 -.00001275  00000-0 -62012-4 0  9990"},{"ARG_OF_PERICENTER":"88.6644","APOAPSIS":"540.675","TLE_LINE2":"2 49410  53.2168  90.3213 0001354  88.6644 271.4504 15.08842264 85918","REV_AT_EPOCH":"8591","DECAY_DATE":null,"CENTER_NAME":"EARTH","SEMIMAJOR_AXIS":"6917.873","RCS_SIZE":"LARGE","MEAN_ELEMENT_THEORY":"SGP4","SITE":"AFETR","OBJECT_ID":"2021-104C","COUNTRY_CODE":"US","NORAD_CAT_ID":"49410","RA_OF_ASC_NODE":"90.3213","OBJECT_TYPE":"PAYLOAD","ELEMENT_SET_NO":"999","MEAN_MOTION_DDOT":"0.0000000000000","MEAN_ANOMALY":"271.4504","GP_ID":"233037654","FILE":"3923342","TLE_LINE1":"1 49410U 21104C   23153.10186959  .00000225  00000-0  32206-4 0  9995","ECCENTRICITY":"0.00013540","EPOCH":"2023-06-02T02:26:41.532576","PERIOD":"95.437","LAUNCH_DATE":"2021-11-13","INCLINATION":"53.2168","TIME_SYSTEM":"UTC","EPHEMERIS_TYPE":"0","OBJECT_NAME":"STARLINK-3147","REF_FRAME":"TEME","MEAN_MOTION_DOT":"0.00000225","MEAN_MOTION":"15.08842264","CLASSIFICATION_TYPE":"U","BSTAR":"0.00003220600000","PERIAPSIS":"538.802"},{"ARG_OF_PERICENTER":"85.9237","APOAPSIS":"540.617","TLE_LINE2":"2 49411  53.2182  80.3439 0001304  85.9237 274.1904 15.08850031 86058","CENTER_NAME":"EARTH","DECAY_DATE":null,"SEMIMAJOR_AXIS":"6917.850","REV_AT_EPOCH":"8605","RCS_SIZE":"LARGE","SITE":"AFETR","OBJECT_ID":"2021-104D","MEAN_ELEMENT_THEORY":"SGP4","NORAD_CAT_ID":"49411","RA_OF_ASC_NODE":"80.3439","COUNTRY_CODE":"US","OBJECT_TYPE":"PAYLOAD","ELEMENT_SET_NO":"999","MEAN_ANOMALY":"274.1904","MEAN_MOTION_DDOT":"0.0000000000000","TLE_LINE1":"1 49411U 21104D   23153.09446521 -.00000359  00000-0 -44346-5 0  9997","ECCENTRICITY":"0.00013040","FILE":"3923342","GP_ID":"233038906","EPOCH":"2023-06-02T02:16:01.794144","PERIOD":"95.437","INCLINATION":"53.2182","LAUNCH_DATE":"2021-11-13","EPHEMERIS_TYPE":"0","MEAN_MOTION_DOT":"-0.00000359","REF_FRAME":"TEME","OBJECT_NAME":"STARLINK-3162","TIME_SYSTEM":"UTC","MEAN_MOTION":"15.08850031","BSTAR":"-0.00000443460000","CLASSIFICATION_TYPE":"U","PERIAPSIS":"538.813"},{"MEAN_MOTION_DDOT":"0.0000000000000","MEAN_ANOMALY":"266.6365","ELEMENT_SET_NO":"999","OBJECT_TYPE":"PAYLOAD","COUNTRY_CODE":"US","RA_OF_ASC_NODE":"89.7034","NORAD_CAT_ID":"49412","MEAN_ELEMENT_THEORY":"SGP4","OBJECT_ID":"2021-104E","SITE":"AFETR","RCS_SIZE":"LARGE","REV_AT_EPOCH":"8594","SEMIMAJOR_AXIS":"6917.873","CENTER_NAME":"EARTH","DECAY_DATE":null,"TLE_LINE2":"2 49412  53.2171  89.7034 0001195  93.4764 266.6365 15.08842388 85948","APOAPSIS":"540.565","ARG_OF_PERICENTER":"93.4764","PERIAPSIS":"538.911","CLASSIFICATION_TYPE":"U","BSTAR":"0.00000152820000","MEAN_MOTION":"15.08842388","TIME_SYSTEM":"UTC","REF_FRAME":"TEME","MEAN_MOTION_DOT":"-0.00000264","OBJECT_NAME":"STARLINK-3144","EPHEMERIS_TYPE":"0","LAUNCH_DATE":"2021-11-13","INCLINATION":"53.2171","PERIOD":"95.437","EPOCH":"2023-06-02T05:41:22.657056","GP_ID":"233039155","FILE":"3923342","ECCENTRICITY":"0.00011950","TLE_LINE1":"1 49412U 21104E   23153.23706779 -.00000264  00000-0  15282-5 0  9999"}];
